NORAD_CAT_ID,OBJECT_NAME,OBJECT_TYPE,EPOCH,MEAN_MOTION,ECCENTRICITY,INCLINATION,RA_OF_ASC_NODE,ARG_OF_PERICENTER,MEAN_ANOMALY,BSTAR,MEAN_MOTION_DOT,MEAN_MOTION_DDOT,TLE_LINE0,TLE_LINE1,TLE_LINE2,SEMIMAJOR_AXIS,PERIOD,APOGEE,PERIGEE,DECAYED
49752.0,STARLINK-3209,PAYLOAD,2021-12-20 20:38:00,15.4048259,0.0001748,53.2142,232.885,42.8982,317.216,0.00010484,3.913e-05,0.0,0 STARLINK-3209,1 49752U 21115AE  21354.85972888  .00003913  00000-0  10484-3 0  9993,2 49752  53.2142 232.8850 0001748  42.8982 317.2160 15.40482590  2917,6822.821,93.477,445.879,443.49300000000005,0.0
49752.0,STARLINK-3209,PAYLOAD,2021-12-20 22:00:01,15.40524162,0.0001771999999999,53.2141,232.618,38.9508,277.2454,-0.00063368,-0.00026427,0.0,0 STARLINK-3209,1 49752U 21115AE  21354.91668981 -.00026427  00000-0 -63368-3 0  9992,2 49752  53.2141 232.6180 0001772  38.9508 277.2454 15.40524162  4035,6822.698,93.475,445.772,443.354,0.0
49752.0,STARLINK-3209,PAYLOAD,2021-12-21 14:00:01,15.40430281,0.0001576999999999,53.2136,229.4749,38.6218,16.7708,-0.0012557,-0.00051642,0.0,0 STARLINK-3209,1 49752U 21115AE  21355.58334491 -.00051642  00000-0 -12557-2 0  9992,2 49752  53.2136 229.4749 0001577  38.6218  16.7708 15.40430281  4139,6822.975,93.48,445.916,443.764,0.0
49752.0,STARLINK-3209,PAYLOAD,2021-12-21 22:00:00,15.40379072,0.0001822,53.2134,227.9063,37.7865,67.1319,0.00032596,0.00012988,0.0,0 STARLINK-3209,1 49752U 21115AE  21355.91667824  .00012988  00000-0  32596-3 0  9992,2 49752  53.2134 227.9063 0001822  37.7865  67.1319 15.40379072  3384,6823.127,93.483,446.235,443.749,0.0
49752.0,STARLINK-3209,PAYLOAD,2021-12-22 06:00:00,15.40416929,0.0001832,53.2138,226.3354,37.0978,117.3224,0.00021371,8.382e-05,0.0,0 STARLINK-3209,1 49752U 21115AE  21356.25001157  .00008382  00000-0  21371-3 0  9993,2 49752  53.2138 226.3354 0001832  37.0978 117.3224 15.40416929  4234,6823.015,93.481,446.13,443.63,0.0
49752.0,STARLINK-3209,PAYLOAD,2021-12-22 14:00:01,15.40413955,0.0001626999999999,53.2159,224.7633,40.8394,163.1619,-0.00042646,-0.00017872,0.0,0 STARLINK-3209,1 49752U 21115AE  21356.58334491 -.00017872  00000-0 -42646-3 0  9993,2 49752  53.2159 224.7633 0001627  40.8394 163.1619 15.40413955  3484,6823.024,93.481,445.999,443.779,0.0
49752.0,STARLINK-3209,PAYLOAD,2021-12-22 20:00:01,15.40486523,0.0001675,53.2151,223.5868,35.5761,115.6026,-0.0011687,-0.00048203,0.0,0 STARLINK-3209,1 49752U 21115AE  21356.83334491 -.00048203  00000-0 -11687-2 0  9993,2 49752  53.2151 223.5868 0001675  35.5761 115.6026 15.40486523  4324,6822.809,93.477,445.817,443.532,0.0
49752.0,STARLINK-3209,PAYLOAD,2021-12-22 22:00:00,15.40465623,0.0001757,53.215,223.1946,34.4631,219.1222,-0.00032627,-0.00013799,0.0,0 STARLINK-3209,1 49752U 21115AE  21356.91667824 -.00013799  00000-0 -32627-3 0  9991,2 49752  53.2150 223.1946 0001757  34.4631 219.1222 15.40465623  3539,6822.871,93.478,445.935,443.537,0.0
49752.0,STARLINK-3209,PAYLOAD,2021-12-23 04:00:01,15.40472576,0.0001761,53.2146,222.0167,32.4084,168.4295,-0.00023793,-0.00010179,0.0,0 STARLINK-3209,1 49752U 21115AE  21357.16668981 -.00010179  00000-0 -23793-3 0  9997,2 49752  53.2146 222.0167 0001761  32.4084 168.4295 15.40472576  4376,6822.851,93.478,445.917,443.514,0.0
49752.0,STARLINK-3209,PAYLOAD,2021-12-23 14:00:01,15.40460565,0.0001599,53.2149,220.0514,41.493,311.28,0.00045608,0.00018397,0.0,0 STARLINK-3209,1 49752U 21115AE  21357.58334491  .00018397  00000-0  45608-3 0  9996,2 49752  53.2149 220.0514 0001599  41.4930 311.2800 15.40460565  3646,6822.886,93.479,445.842,443.66,0.0
49752.0,STARLINK-3209,PAYLOAD,2021-12-23 22:00:00,15.40454546,0.0001816,53.2151,218.4826,38.5124,3.8511,-0.00066174,-0.00027513,0.0,0 STARLINK-3209,1 49752U 21115AE  21357.91667824 -.00027513  00000-0 -66174-3 0  9995,2 49752  53.2151 218.4826 0001816  38.5124   3.8511 15.40454546  3656,6822.904,93.479,446.008,443.53,0.0
49752.0,STARLINK-3209,PAYLOAD,2021-12-24 06:00:00,15.40458635,0.0001799,53.215,216.9114,37.4383,54.4828,-0.0012251,-0.00050449,0.0,0 STARLINK-3209,1 49752U 21115AE  21358.25001157 -.00050449  00000-0 -12251-2 0  9994,2 49752  53.2150 216.9114 0001799  37.4383  54.4828 15.40458635  4548,6822.892,93.479,445.984,443.529,0.0
49752.0,STARLINK-3209,PAYLOAD,2021-12-24 14:00:01,15.40417216,0.0001721999999999,53.2155,215.3396,45.203,96.274,0.0011722999999999,0.00048039,0.0,0 STARLINK-3209,1 49752U 21115AE  21358.58334491  .00048039  00000-0  11723-2 0  9993,2 49752  53.2155 215.3396 0001722  45.2030  96.2740 15.40417216  3636,6823.014,93.481,446.054,443.704,0.0
49752.0,STARLINK-3209,PAYLOAD,2021-12-24 22:00:00,15.40435776,0.0001955,53.2156,213.771,40.1314,150.8998,0.0004723,0.00019051,0.0,0 STARLINK-3209,1 49752U 21115AE  21358.91667824  .00019051  00000-0  47230-3 0  9994,2 49752  53.2156 213.7710 0001955  40.1314 150.8998 15.40435776  4641,6822.959,93.48,446.158,443.49,0.0
49752.0,STARLINK-3209,PAYLOAD,2021-12-25 06:00:00,15.40525843,0.0001598,53.2169,212.2005,43.4446,197.1558,-0.0025135,-0.00102611,0.0,0 STARLINK-3209,1 49752U 21115AE  21359.25001157 -.00102611  00000-0 -25135-2 0  9999,2 49752  53.2169 212.2005 0001598  43.4446 197.1558 15.40525843  4697,6822.693,93.475,445.649,443.468,0.0
49752.0,STARLINK-3209,PAYLOAD,2021-12-25 14:00:01,15.40473015,0.0001804,53.2163,210.6278,44.4939,245.6908,0.00038415,0.00015432,0.0,0 STARLINK-3209,1 49752U 21115AE  21359.58334491  .00015432  00000-0  38415-3 0  9993,2 49752  53.2163 210.6278 0001804  44.4939 245.6908 15.40473015  3637,6822.849,93.478,445.945,443.483,0.0
49752.0,STARLINK-3209,PAYLOAD,2021-12-25 22:00:00,15.4045396,0.0002022,53.2164,209.0592,39.0538,300.7448,0.00021478,8.437e-05,0.0,0 STARLINK-3209,1 49752U 21115AE  21359.91667824  .00008437  00000-0  21478-3 0  9997,2 49752  53.2164 209.0592 0002022  39.0538 300.7448 15.40453960  4806,6822.906,93.479,446.15,443.391,0.0
49752.0,STARLINK-3209,PAYLOAD,2021-12-26 14:00:01,15.40450264,0.0001824,53.2167,205.9161,40.4658,38.5161,0.00067337,0.00027377,0.0,0 STARLINK-3209,1 49752U 21115AE  21360.58334491  .00027377  00000-0  67337-3 0  9991,2 49752  53.2167 205.9161 0001824  40.4658  38.5161 15.40450264  3614,6822.916,93.479,446.026,443.537,0.0
49752.0,STARLINK-3209,PAYLOAD,2021-12-26 22:00:00,15.40456777,0.0002042,53.2166,204.3476,35.5992,92.9729,0.0004021,0.00016165,0.0,0 STARLINK-3209,1 49752U 21115AE  21360.91667824  .00016165  00000-0  40210-3 0  9991,2 49752  53.2166 204.3476 0002042  35.5992  92.9729 15.40456777  3635,6822.897,93.479,446.155,443.369,0.0
49752.0,STARLINK-3209,PAYLOAD,2021-12-27 06:00:00,15.40481299,0.0001919,53.2163,202.7759,34.5498,143.6082,-0.0013271,-0.00054627,0.0,0 STARLINK-3209,1 49752U 21115AE  21361.25001157 -.00054627  00000-0 -13271-2 0  9993,2 49752  53.2163 202.7759 0001919  34.5498 143.6082 15.40481299  5006,6822.825,93.477,445.999,443.381,0.0
49752.0,STARLINK-3209,PAYLOAD,2021-12-27 14:00:01,15.40455311,0.0001812,53.2163,201.2049,39.1785,188.5621,0.00041784,0.00016814,0.0,0 STARLINK-3209,1 49752U 21115AE  21361.58334491  .00016814  00000-0  41784-3 0  9994,2 49752  53.2163 201.2049 0001812  39.1785 188.5621 15.40455311  3634,6822.901999999999,93.479,446.003,443.53,0.0
49752.0,STARLINK-3209,PAYLOAD,2021-12-27 22:00:00,15.40428754,0.0002152,53.2161,199.6364,35.3405,241.954,0.00061633,0.00024998,0.0,0 STARLINK-3209,1 49752U 21115AE  21361.91667824  .00024998  00000-0  61633-3 0  9997,2 49752  53.2161 199.6364 0002152  35.3405 241.9540 15.40428754  5106,6822.98,93.48,446.31300000000016,443.377,0.0
49752.0,STARLINK-3209,PAYLOAD,2021-12-28 14:00:01,15.40467961,0.0001925,53.2157,196.4937,40.6076,335.8344,0.0003164,0.00012632,0.0,0 STARLINK-3209,1 49752U 21115AE  21362.58334491  .00012632  00000-0  31640-3 0  9999,2 49752  53.2157 196.4937 0001925  40.6076 335.8344 15.40467961  3669,6822.864000000001,93.478,446.043,443.416,0.0
49752.0,STARLINK-3209,PAYLOAD,2021-12-28 22:00:00,15.40455789,0.0002136,53.2156,194.9249,36.6593,29.3864,0.00076821,0.00031312,0.0,0 STARLINK-3209,1 49752U 21115AE  21362.91667824  .00031312  00000-0  76821-3 0  9991,2 49752  53.2156 194.9249 0002136  36.6593  29.3864 15.40455789  3635,6822.9,93.479,446.223,443.3080000000001,0.0
49752.0,STARLINK-3209,PAYLOAD,2021-12-29 06:00:02,15.40488811,0.0001973,53.2153,193.3529,37.5919,78.1142,-0.00043093,-0.000181,0.0,0 STARLINK-3209,1 49752U 21115AE  21363.25002315 -.00018100  00000-0 -43093-3 0  9994,2 49752  53.2153 193.3529 0001973  37.5919  78.1142 15.40488811  5316,6822.803000000001,93.477,446.014,443.322,0.0
49752.0,STARLINK-3209,PAYLOAD,2021-12-29 14:00:01,15.40488067,0.0001892,53.2155,191.7819,40.1782,125.1376,-0.00072608,-0.00030172,0.0,0 STARLINK-3209,1 49752U 21115AE  21363.58335648 -.00030172  00000-0 -72608-3 0  9995,2 49752  53.2155 191.7819 0001892  40.1782 125.1376 15.40488067  3661,6822.805,93.477,445.961,443.379,0.0
49752.0,STARLINK-3209,PAYLOAD,2021-12-29 21:04:17,15.40467427,0.0002073,53.2164,190.3933,38.6448,321.4706,0.00010197,3.793e-05,0.0,0 STARLINK-3209,1 49752U 21115AE  21363.87798118  .00003793  00000-0  10197-3 0  9994,2 49752  53.2164 190.3933 0002073  38.6448 321.4706 15.40467427  4303,6822.866,93.478,446.145,443.316,0.0
49752.0,STARLINK-3209,PAYLOAD,2021-12-30 14:00:01,15.40502474,0.0001915,53.2156,187.0702,38.3485,275.6975,-0.0010381,-0.00042914,0.0,0 STARLINK-3209,1 49752U 21115AE  21364.58334491 -.00042914  00000-0 -10381-2 0  9997,2 49752  53.2156 187.0702 0001915  38.3485 275.6975 15.40502474  3638,6822.762,93.476,445.934,443.321,0.0
49752.0,STARLINK-3209,PAYLOAD,2021-12-30 20:25:40,15.40481069,0.0002137,53.2159,185.8082,37.2347,322.8807,0.00010794,4.04e-05,0.0,0 STARLINK-3209,1 49752U 21115AE  21364.85115899  .00004040  00000-0  10794-3 0  9991,2 49752  53.2159 185.8082 0002137  37.2347 322.8807 15.40481069  4456,6822.826,93.477,446.149,443.232,0.0
